OBJECT_NAME,OBJECT_ID,EPOCH,MEAN_MOTION,ECCENTRICITY,INCLINATION,RA_OF_ASC_NODE,ARG_OF_PERICENTER,MEAN_ANOMALY,EPHEMERIS_TYPE,CLASSIFICATION_TYPE,NORAD_CAT_ID,ELEMENT_SET_NO,REV_AT_EPOCH,BSTAR,MEAN_MOTION_DOT,MEAN_MOTION_DDOT
STARLINK-35941,2025-268AC,2026-07-17T10:00:58.335840,15.27563006,.00012171,43.0003,334.0977,225.1460,134.9293,0,U,66583,999,3780,.13189405E-3,.3367E-4,0
STARLINK-35939,2025-268AD,2026-07-17T09:55:24.486240,15.27583397,.00026536,43.0039,334.0727,287.9385,72.1177,0,U,66584,999,3780,.3445732E-3,.9233E-4,0
STARLINK-35963,2025-268AE,2026-07-17T09:40:49.261152,15.27585257,.00008554,42.9990,334.8647,232.3339,127.7435,0,U,66585,999,3779,.52967502E-3,.14344E-3,0
STARLINK-36076,2025-270A,2026-07-17T13:50:25.806048,15.27584835,.00013227,42.9986,42.3722,284.6519,75.4186,0,U,66588,999,3757,.30823461E-3,.8231E-4,0
STARLINK-35447,2025-270B,2026-07-17T14:00:01.999872,15.27570975,.0001403,43.0004,42.6081,260.6086,22.9723,0,U,66589,999,581,.6179588E-3,.16777E-3,0
STARLINK-35429,2025-270C,2026-07-17T15:04:27.401088,15.27557080,.00043297,43.0032,42.7611,296.5828,63.4580,0,U,66590,999,3768,.23205526E-3,.6125E-4,0
STARLINK-36058,2025-270D,2026-07-17T14:27:26.426016,15.27578410,.0000991,43.0006,42.5631,259.7627,100.3113,0,U,66591,999,3757,.3411616E-3,.9137E-4,0
STARLINK-36066,2025-270E,2026-07-17T13:11:47.152320,15.27588720,.00003293,43.0022,43.0353,354.1729,5.9119,0,U,66592,999,3746,.36885537E-3,.9904E-4,0
STARLINK-36031,2025-270F,2026-07-16T23:52:15.835008,15.27586651,.00026447,42.9995,45.7416,260.1821,99.8732,0,U,66593,999,3748,.48672791E-3,.13159E-3,0
STARLINK-36032,2025-270G,2026-07-17T13:08:04.111584,15.27592081,.0002151,43.0013,43.0096,282.8418,77.2193,0,U,66594,999,3737,.43403279E-3,.11705E-3,0
STARLINK-35711,2025-270H,2026-07-17T14:05:14.043840,15.27595474,.00009373,42.9928,42.4449,71.0540,289.0413,0,U,66595,999,3768,.26024215E-3,.6909E-4,0
STARLINK-35811,2025-270J,2026-07-17T13:22:53.240160,15.27589035,.00022237,43.0034,43.0924,290.9034,69.1579,0,U,66596,999,3767,.27681903E-3,.7365E-4,0
STARLINK-35820,2025-270K,2026-07-17T14:31:09.134976,15.27587257,.00020634,43.0056,42.5870,269.3959,90.6657,0,U,66597,999,3768,.72065565E-3,.19626E-3,0
STARLINK-35981,2025-270L,2026-07-17T15:17:11.129568,15.27583441,.0001386,43.0007,41.9567,260.8309,99.2386,0,U,66598,999,3743,.24870099E-3,.6588E-4,0
STARLINK-35930,2025-270M,2026-07-16T14:43:58.602144,15.27571626,.0001356,43.0001,48.0428,261.6636,98.4062,0,U,66599,999,3742,.38093E-4,.786E-5,0
STARLINK-35980,2025-270N,2026-07-17T13:19:11.097120,15.27586742,.00010047,42.9996,43.0673,281.2562,78.8177,0,U,66600,999,3746,.31914624E-3,.8532E-4,0
STARLINK-35978,2025-270P,2026-07-16T20:58:45.695136,15.27586959,.00014121,43.0022,46.5590,259.9558,100.1134,0,U,66601,999,3730,.42294513E-3,.11397E-3,0
STARLINK-36050,2025-270Q,2026-07-17T14:51:29.743200,15.27590074,.00009476,43.0024,42.6934,325.6641,34.4149,0,U,66602,999,3747,.32091999E-3,.8582E-4,0
STARLINK-36048,2025-270R,2026-07-16T22:12:33.924096,15.27589370,.00010896,43.0068,46.0691,290.9325,69.1410,0,U,66603,999,3737,.32880532E-3,.8799E-4,0
STARLINK-35977,2025-270S,2026-07-16T23:30:03.852000,15.27593098,.00018414,43.0036,45.6202,273.5053,86.5588,0,U,66604,999,3748,.33429661E-3,.8952E-4,0
STARLINK-36052,2025-270T,2026-07-17T14:36:41.299776,15.27585037,.00008737,43.0003,42.6057,269.8462,90.2289,0,U,66605,999,3757,.31388788E-3,.8387E-4,0
STARLINK-36063,2025-270U,2026-07-16T23:54:07.186464,15.27585833,.00014873,42.9990,45.7417,261.0868,98.9816,0,U,66606,999,3748,.37833723E-3,.10165E-3,0
STARLINK-35993,2025-270V,2026-07-17T14:32:59.241408,15.27596194,.00017726,43.0024,42.5884,275.9188,84.1462,0,U,66607,999,3747,.44837772E-3,.12103E-3,0
STARLINK-36036,2025-270W,2026-07-16T23:48:34.784064,15.27581162,.00011194,42.9973,45.7160,336.2018,23.8782,0,U,66608,999,3732,.37666376E-3,.10118E-3,0
STARLINK-36034,2025-270X,2026-07-16T21:46:52.100544,15.27591413,.00016074,43.0032,46.8033,269.2124,90.8544,0,U,66609,999,3730,.32861468E-3,.8795E-4,0
STARLINK-35680,2025-270Y,2026-07-17T14:21:54.920448,15.27592521,.0000572,42.9977,42.5304,269.7684,90.3102,0,U,66610,999,3768,.73195089E-3,.19942E-3,0
STARLINK-35583,2025-270Z,2026-07-17T14:10:46.967232,15.27591690,.00001784,42.9965,42.4735,341.9547,18.1298,0,U,66611,999,3768,.30528845E-3,.8151E-4,0
STARLINK-36039,2025-270AA,2026-07-17T13:06:13.824576,15.27584746,.00015025,42.9993,42.9988,267.4202,92.6477,0,U,66612,999,3756,.25388776E-3,.6732E-4,0
STARLINK-36037,2025-270AB,2026-07-17T14:25:35.307840,15.27579953,.00018848,43.0017,42.5560,282.4856,77.5785,0,U,66613,999,3757,.23671648E-3,.6257E-4,0
STARLINK-36040,2025-270AC,2026-07-17T13:24:44.357472,15.27600787,.00015312,42.9971,43.0981,47.0833,313.0147,0,U,66614,999,3740,.32961749E-3,.8825E-4,0
STARLINK-35988,2025-270AD,2026-07-17T14:08:55.480128,15.27582935,.00001941,42.9932,42.4644,21.4559,338.6301,0,U,66615,999,3741,.2352081E-4,.386E-5,0
STARLINK-35391,2025-270AE,2026-07-17T14:47:47.155200,15.27595027,.00019862,43.0053,42.6643,270.4663,89.5962,0,U,66616,999,3768,.20973075E-3,.5516E-4,0
STARLINK-35940,2025-271A,2026-07-16T11:35:06.093024,15.30207321,.000089,53.1574,261.8390,79.9659,280.1442,0,U,66617,999,3728,.2589E-3,.7318E-4,0
STARLINK-35970,2025-271B,2026-07-17T10:09:40.133952,15.30208321,.00013365,53.1584,257.0282,79.2955,280.8197,0,U,66618,999,3743,.25556767E-3,.7219E-4,0
STARLINK-35951,2025-271C,2026-07-17T11:11:58.682688,15.30201126,.00010733,53.1573,257.3079,79.5759,280.5363,0,U,66619,999,3743,.19828124E-3,.5518E-4,0
STARLINK-35936,2025-271D,2026-07-15T12:25:35.231232,15.30229955,.00012159,53.1587,266.4770,78.8266,281.2872,0,U,66620,999,3713,.4608024E-3,.13326E-3,0
STARLINK-35847,2025-271E,2026-07-17T12:49:05.425248,15.30161207,.00015357,53.1572,257.0070,108.1592,251.9576,0,U,66621,999,3744,.41702753E-4,.875E-5,0
STARLINK-35950,2025-271F,2026-07-17T11:08:58.133472,15.30195197,.00012643,53.1560,257.2975,76.9564,283.1578,0,U,66622,999,3743,.28279172E-3,.8024E-4,0
STARLINK-35920,2025-271G,2026-07-17T13:10:26.577408,15.34402181,.00007742,53.1573,253.5691,72.8164,287.2923,0,U,66623,999,3749,.25617353E-3,.8289E-4,0
STARLINK-35927,2025-271H,2026-07-17T10:11:12.346080,15.30225863,.00014952,53.1591,257.0472,64.5849,295.5307,0,U,66624,999,3743,.42998537E-3,.12407E-3,0
STARLINK-35929,2025-271J,2026-07-17T12:49:13.964160,15.34394053,.00007077,53.1581,253.4727,123.0478,237.0593,0,U,66625,999,3748,.16211075E-3,.5104E-4,0
STARLINK-35902,2025-271K,2026-07-17T12:58:13.048320,15.30203451,.00013158,53.1570,257.0602,74.6978,285.4168,0,U,66626,999,3744,.28209235E-3,.8005E-4,0
STARLINK-35904,2025-271L,2026-07-17T12:33:52.433856,15.30206885,.00007856,53.1569,256.9525,95.2465,264.8626,0,U,66627,999,3740,.10850479E-3,.2857E-4,0
STARLINK-35862,2025-271M,2026-07-17T11:51:47.568384,15.34398722,.00011126,53.1571,253.9268,146.2298,213.8775,0,U,66628,999,3748,.2790429E-3,.9063E-4,0
STARLINK-35949,2025-271P,2026-07-17T03:35:33.063936,15.34393283,.00015516,53.1579,255.3422,54.8634,305.2514,0,U,66630,999,3743,.54057897E-3,.17928E-3,0
STARLINK-35965,2025-271Q,2026-07-17T12:46:12.290880,15.34397125,.00008661,53.1584,253.4589,90.4512,269.6590,0,U,66631,999,3748,.19794858E-3,.6317E-4,0
STARLINK-35973,2025-271R,2026-07-17T03:53:43.520928,15.34390214,.00013721,53.1577,255.4237,74.6672,285.4482,0,U,66632,999,3738,.58783814E-3,.1953E-3,0
STARLINK-35948,2025-271S,2026-07-17T11:45:43.838208,15.34400246,.00015948,53.1572,253.9060,158.6441,201.4629,0,U,66633,999,3748,.17664361E-3,.5596E-4,0
STARLINK-35967,2025-271T,2026-07-17T03:38:34.738944,15.34399408,.00011557,53.1575,255.3564,88.1262,271.9873,0,U,66634,999,3738,.34255609E-3,.11215E-3,0
STARLINK-35955,2025-271U,2026-07-17T04:48:10.177056,15.30204055,.00015479,53.1592,258.4943,103.2480,256.8693,0,U,66635,999,3739,.20696497E-3,.5776E-4,0
STARLINK-35968,2025-271V,2026-07-17T03:23:13.969824,15.30203527,.00018257,53.1581,258.8353,40.0645,320.0490,0,U,66636,999,3738,.18097073E-3,.5005E-4,0
STARLINK-35953,2025-271W,2026-07-17T10:14:58.444512,15.34401088,.00013797,53.1575,254.2266,83.2756,276.8403,0,U,66637,999,3747,.32241725E-3,.10533E-3,0
STARLINK-35972,2025-271X,2026-07-17T12:56:41.870400,15.30196580,.00012553,53.1571,257.0491,95.8471,264.2673,0,U,66638,999,3744,.28016004E-3,.7946E-4,0
STARLINK-35908,2025-271Y,2026-07-17T04:42:05.105952,15.30205121,.00011783,53.1572,258.4548,118.8238,241.2882,0,U,66639,999,3739,.22412733E-3,.6286E-4,0
STARLINK-35921,2025-271Z,2026-07-15T11:06:32.064768,15.30238163,.00010244,53.1591,266.1325,78.6551,281.4565,0,U,66640,999,3713,.69408849E-3,.20278E-3,0
STARLINK-35923,2025-271AA,2026-07-17T13:08:49.405056,15.30204150,.00009808,53.1590,257.1001,83.6938,276.4174,0,U,66641,999,3744,.20896222E-3,.5835E-4,0
STARLINK-35926,2025-271AB,2026-07-17T12:52:06.453984,15.30201613,.0001034,53.1579,257.0237,100.0454,260.0663,0,U,66642,999,3740,.20758061E-3,.5794E-4,0
STARLINK-35918,2025-271AC,2026-07-16T13:37:27.554592,15.34378450,.0001115,53.1580,258.1060,55.7944,304.3164,0,U,66643,999,3734,.40537E-4,.993E-5,0
STARLINK-35938,2025-271AD,2026-07-17T13:04:15.544704,15.30237450,.00018444,53.1585,257.0813,58.4342,301.6839,0,U,66644,999,3744,.60884096E-3,.17737E-3,0
COSMOS 2597 (RODNIK-S 22),2025-273A,2026-07-16T22:38:14.286624,12.42899739,.00122738,82.5010,152.0221,146.3544,213.8317,0,U,66647,999,2899,-.45602571E-4,.4E-7,0
COSMOS 2598 (RODNIK-S 23),2025-273B,2026-07-17T07:34:39.316512,12.42880744,.0012062,82.5051,151.8301,115.6774,244.5553,0,U,66648,999,2904,.28972662E-4,.14E-6,0
COSMOS 2599 (RODNIK-S 24),2025-273C,2026-07-16T23:17:26.641536,12.42896680,.00166281,82.5049,152.1266,134.6217,225.6222,0,U,66649,999,2899,-.9652497E-5,.9E-7,0
BEE-1000,2025-274A,2026-07-17T01:04:05.369376,14.93057355,.00100741,97.7473,126.6627,253.7343,106.2769,0,U,66650,999,3466,.98668111E-4,.971E-5,0
2025-274B,2025-274B,2026-07-17T06:33:34.204320,14.93362858,.00102267,97.7467,126.9607,250.4912,109.5204,0,U,66651,999,3470,.14036744E-3,.1417E-4,0
